CTC2_L_00133001-01
1 51051U 23504HS  26037.47791667  .00000000  00000+0  00000-0 0  9990
2 51051  80.0000   0.0000 0000000   0.0000   0.0000 13.03091717    15
CTC2_L_00133001-02
1 51052U 23399JP  26037.47791667  .00000000  00000+0  00000-0 0  9993
2 51052  80.0000   0.0000 0000000   0.0000  90.0000 13.03091717    15
CTC2_L_00133001-03
1 51053U 22377BQ  26037.47791667  .00000000  00000+0  00000-0 0  9999
2 51053  80.0000   0.0000 0000000   0.0000 180.0000 13.03091717    16
CTC2_L_00133001-04
1 51054U 25790D   26037.47791667  .00000000  00000+0  00000-0 0  9992
2 51054  80.0000   0.0000 0000000   0.0000 270.0000 13.03091717    17
CTC2_L_00133002-01
1 51055U 22661UX  26037.47791667  .00000000  00000+0  00000-0 0  9997
2 51055  80.0000  12.0000 0000000   0.0000  12.0000 13.03091717    15
CTC2_L_00133002-02
1 51056U 26089PA  26037.47791667  .00000000  00000+0  00000-0 0  9996
2 51056  80.0000  12.0000 0000000   0.0000 102.0000 13.03091717    16
CTC2_L_00133002-03
1 51057U 22946EX  26037.47791667  .00000000  00000+0  00000-0 0  9995
2 51057  80.0000  12.0000 0000000   0.0000 192.0000 13.03091717    16
CTC2_L_00133002-04
1 51058U 22909TJ  26037.47791667  .00000000  00000+0  00000-0 0  9995
2 51058  80.0000  12.0000 0000000   0.0000 282.0000 13.03091717    17
CTC2_L_00133003-01
1 51059U 25231SD  26037.47791667  .00000000  00000+0  00000-0 0  9997
2 51059  80.0000  24.0000 0000000   0.0000  24.0000 13.03091717    15
CTC2_L_00133003-02
1 51060U 22919X   26037.47791667  .00000000  00000+0  00000-0 0  9999
2 51060  80.0000  24.0000 0000000   0.0000 114.0000 13.03091717    17
CTC2_L_00133003-03
1 51061U 24155NO  26037.47791667  .00000000  00000+0  00000-0 0  9994
2 51061  80.0000  24.0000 0000000   0.0000 204.0000 13.03091717    18
CTC2_L_00133003-04
1 51062U 25641EN  26037.47791667  .00000000  00000+0  00000-0 0  9996
2 51062  80.0000  24.0000 0000000   0.0000 294.0000 13.03091717    18
CTC2_L_00133004-01
1 51063U 24340DI  26037.47791667  .00000000  00000+0  00000-0 0  9992
2 51063  80.0000  36.0000 0000000   0.0000  36.0000 13.03091717    16
CTC2_L_00133004-02
1 51064U 25814PU  26037.47791667  .00000000  00000+0  00000-0 0  9990
2 51064  80.0000  36.0000 0000000   0.0000 126.0000 13.03091717    17
CTC2_L_00133004-03
1 51065U 22496KV  26037.47791667  .00000000  00000+0  00000-0 0  9994
2 51065  80.0000  36.0000 0000000   0.0000 216.0000 13.03091717    18
CTC2_L_00133004-04
1 51066U 25048WY  26037.47791667  .00000000  00000+0  00000-0 0  9991
2 51066  80.0000  36.0000 0000000   0.0000 306.0000 13.03091717    19
CTC2_L_00133005-01
1 51067U 24347BC  26037.47791667  .00000000  00000+0  00000-0 0  9993
2 51067  80.0000  48.0000 0000000   0.0000  48.0000 13.03091717    16
CTC2_L_00133005-02
1 51068U 23553WC  26037.47791667  .00000000  00000+0  00000-0 0  9992
2 51068  80.0000  48.0000 0000000   0.0000 138.0000 13.03091717    17
CTC2_L_00133005-03
1 51069U 22478P   26037.47791667  .00000000  00000+0  00000-0 0  9998
2 51069  80.0000  48.0000 0000000   0.0000 228.0000 13.03091717    18
CTC2_L_00133005-04
1 51070U 22541RC  26037.47791667  .00000000  00000+0  00000-0 0  9991
2 51070  80.0000  48.0000 0000000   0.0000 318.0000 13.03091717    10
CTC2_L_00133006-01
1 51071U 22896IW  26037.47791667  .00000000  00000+0  00000-0 0  9995
2 51071  80.0000  60.0000 0000000   0.0000  60.0000 13.03091717    19
CTC2_L_00133006-02
1 51072U 25456YI  26037.47791667  .00000000  00000+0  00000-0 0  9991
2 51072  80.0000  60.0000 0000000   0.0000 150.0000 13.03091717    10
CTC2_L_00133006-03
1 51073U 24518CR  26037.47791667  .00000000  00000+0  00000-0 0  9990
2 51073  80.0000  60.0000 0000000   0.0000 240.0000 13.03091717    11
CTC2_L_00133006-04
1 51074U 22184XU  26037.47791667  .00000000  00000+0  00000-0 0  9998
2 51074  80.0000  60.0000 0000000   0.0000 330.0000 13.03091717    12
CTC2_L_00133007-01
1 51075U 26457UD  26037.47791667  .00000000  00000+0  00000-0 0  9996
2 51075  80.0000  72.0000 0000000   0.0000  72.0000 13.03091717    19
CTC2_L_00133007-02
1 51076U 26752EH  26037.47791667  .00000000  00000+0  00000-0 0  9995
2 51076  80.0000  72.0000 0000000   0.0000 162.0000 13.03091717    10
CTC2_L_00133007-03
1 51077U 24514TF  26037.47791667  .00000000  00000+0  00000-0 0  9990
2 51077  80.0000  72.0000 0000000   0.0000 252.0000 13.03091717    11
CTC2_L_00133007-04
1 51078U 22528YA  26037.47791667  .00000000  00000+0  00000-0 0  9994
2 51078  80.0000  72.0000 0000000   0.0000 342.0000 13.03091717    12
CTC2_L_00133008-01
1 51079U 24444NR  26037.47791667  .00000000  00000+0  00000-0 0  9994
2 51079  80.0000  84.0000 0000000   0.0000  84.0000 13.03091717    19
CTC2_L_00133008-02
1 51080U 26082ZU  26037.47791667  .00000000  00000+0  00000-0 0  9996
2 51080  80.0000  84.0000 0000000   0.0000 174.0000 13.03091717    11
CTC2_L_00133008-03
1 51081U 24440FM  26037.47791667  .00000000  00000+0  00000-0 0  9993
2 51081  80.0000  84.0000 0000000   0.0000 264.0000 13.03091717    12
CTC2_L_00133008-04
1 51082U 26526AJ  26037.47791667  .00000000  00000+0  00000-0 0  9991
2 51082  80.0000  84.0000 0000000   0.0000 354.0000 13.03091717    13
CTC2_L_00133009-01
1 51083U 22816PS  26037.47791667  .00000000  00000+0  00000-0 0  9990
2 51083  80.0000  96.0000 0000000   0.0000  96.0000 13.03091717    10
CTC2_L_00133009-02
1 51084U 23331UG  26037.47791667  .00000000  00000+0  00000-0 0  9994
2 51084  80.0000  96.0000 0000000   0.0000 186.0000 13.03091717    11
CTC2_L_00133009-03
1 51085U 26503XD  26037.47791667  .00000000  00000+0  00000-0 0  9999
2 51085  80.0000  96.0000 0000000   0.0000 276.0000 13.03091717    12
CTC2_L_00133009-04
1 51086U 24192JX  26037.47791667  .00000000  00000+0  00000-0 0  9992
2 51086  80.0000  96.0000 0000000   0.0000   6.0000 13.03091717    14
CTC2_L_00133010-01
1 51087U 25128IV  26037.47791667  .00000000  00000+0  00000-0 0  9993
2 51087  80.0000 108.0000 0000000   0.0000 108.0000 13.03091717    12
CTC2_L_00133010-02
1 51088U 22869AF  26037.47791667  .00000000  00000+0  00000-0 0  9993
2 51088  80.0000 108.0000 0000000   0.0000 198.0000 13.03091717    12
CTC2_L_00133010-03
1 51089U 22568HF  26037.47791667  .00000000  00000+0  00000-0 0  9990
2 51089  80.0000 108.0000 0000000   0.0000 288.0000 13.03091717    13
CTC2_L_00133010-04
1 51090U 25205OQ  26037.47791667  .00000000  00000+0  00000-0 0  9993
2 51090  80.0000 108.0000 0000000   0.0000  18.0000 13.03091717    16
CTC2_L_00133011-01
1 51091U 22392ME  26037.47791667  .00000000  00000+0  00000-0 0  9998
2 51091  80.0000 120.0000 0000000   0.0000 120.0000 13.03091717    15
CTC2_L_00133011-02
1 51092U 23079FA  26037.47791667  .00000000  00000+0  00000-0 0  9992
2 51092  80.0000 120.0000 0000000   0.0000 210.0000 13.03091717    16
CTC2_L_00133011-03
1 51093U 23812VW  26037.47791667  .00000000  00000+0  00000-0 0  9998
2 51093  80.0000 120.0000 0000000   0.0000 300.0000 13.03091717    17
CTC2_L_00133011-04
1 51094U 24938VO  26037.47791667  .00000000  00000+0  00000-0 0  9999
2 51094  80.0000 120.0000 0000000   0.0000  30.0000 13.03091717    18
CTC2_L_00133012-01
1 51095U 26768WV  26037.47791667  .00000000  00000+0  00000-0 0  9993
2 51095  80.0000 132.0000 0000000   0.0000 132.0000 13.03091717    15
CTC2_L_00133012-02
1 51096U 24030JQ  26037.47791667  .00000000  00000+0  00000-0 0  9994
2 51096  80.0000 132.0000 0000000   0.0000 222.0000 13.03091717    16
CTC2_L_00133012-03
1 51097U 26483AJ  26037.47791667  .00000000  00000+0  00000-0 0  9999
2 51097  80.0000 132.0000 0000000   0.0000 312.0000 13.03091717    17
CTC2_L_00133012-04
1 51098U 26179HZ  26037.47791667  .00000000  00000+0  00000-0 0  9992
2 51098  80.0000 132.0000 0000000   0.0000  42.0000 13.03091717    18
CTC2_L_00133013-01
1 51099U 24590JH  26037.47791667  .00000000  00000+0  00000-0 0  9998
2 51099  80.0000 144.0000 0000000   0.0000 144.0000 13.03091717    15
CTC2_L_00133013-02
1 51100U 26552OG  26037.47791667  .00000000  00000+0  00000-0 0  9991
2 51100  80.0000 144.0000 0000000   0.0000 234.0000 13.03091717    18
CTC2_L_00133013-03
1 51101U 26818TW  26037.47791667  .00000000  00000+0  00000-0 0  9997
2 51101  80.0000 144.0000 0000000   0.0000 324.0000 13.03091717    19
CTC2_L_00133013-04
1 51102U 25252RN  26037.47791667  .00000000  00000+0  00000-0 0  9999
2 51102  80.0000 144.0000 0000000   0.0000  54.0000 13.03091717    10
CTC2_L_00133014-01
1 51103U 24686QY  26037.47791667  .00000000  00000+0  00000-0 0  9990
2 51103  80.0000 156.0000 0000000   0.0000 156.0000 13.03091717    17
CTC2_L_00133014-02
1 51104U 23366P   26037.47791667  .00000000  00000+0  00000-0 0  9995
2 51104  80.0000 156.0000 0000000   0.0000 246.0000 13.03091717    18
CTC2_L_00133014-03
1 51105U 26444RH  26037.47791667  .00000000  00000+0  00000-0 0  9996
2 51105  80.0000 156.0000 0000000   0.0000 336.0000 13.03091717    19
CTC2_L_00133014-04
1 51106U 23113TX  26037.47791667  .00000000  00000+0  00000-0 0  9997
2 51106  80.0000 156.0000 0000000   0.0000  66.0000 13.03091717    10
CTC2_L_00133015-01
1 51107U 25889QW  26037.47791667  .00000000  00000+0  00000-0 0  9990
2 51107  80.0000 168.0000 0000000   0.0000 168.0000 13.03091717    17
CTC2_L_00133015-02
1 51108U 24904ZZ  26037.47791667  .00000000  00000+0  00000-0 0  9998
2 51108  80.0000 168.0000 0000000   0.0000 258.0000 13.03091717    18
CTC2_L_00133015-03
1 51109U 24421E   26037.47791667  .00000000  00000+0  00000-0 0  9993
2 51109  80.0000 168.0000 0000000   0.0000 348.0000 13.03091717    19
CTC2_L_00133015-04
1 51110U 26861WN  26037.47791667  .00000000  00000+0  00000-0 0  9995
2 51110  80.0000 168.0000 0000000   0.0000  78.0000 13.03091717    11
CTC2_L_00133016-01
1 51111U 26032JO  26037.47791667  .00000000  00000+0  00000-0 0  9996
2 51111  80.0000 180.0000 0000000   0.0000 180.0000 13.03091717    10
CTC2_L_00133016-02
1 51112U 23714XR  26037.47791667  .00000000  00000+0  00000-0 0  9991
2 51112  80.0000 180.0000 0000000   0.0000 270.0000 13.03091717    11
